0 MOLNIYA 1-86
1 22671U 93035A   13281.70575087  .00018107  00000-0  79072-3 0  6747
2 22671 062.7879 301.5976 5115392 305.9109 016.7028 05.51630055173952
0 MOLNIYA 1-86
1 22671U 93035A   13283.15591097  .00019562  00000-0  85724-3 0  6755
2 22671 062.7873 300.7224 5114829 305.9592 016.7173 05.51692647174039
0 MOLNIYA 1-86
1 22671U 93035A   13283.69966285  .00020514  00000-0  89350-3 0  6768
2 22671 062.7801 300.4260 5114747 305.9671 016.6957 05.51718775174067
0 MOLNIYA 1-86
1 22671U 93035A   13284.06215755  .00020872  00000-0  91314-3 0  6769
2 22671 062.7867 300.1772 5114556 305.9906 016.6962 05.51735878174084
0 MOLNIYA 1-86
1 22671U 93035A   13284.42463376  .00021862  00000-0  96093-3 0  6773
2 22671 062.7872 299.9595 5114261 306.0007 016.6893 05.51755626174104
0 MOLNIYA 1-86
1 22671U 93035A   13285.33078266  .00022592  00000-0  99371-3 0  6788
2 22671 062.7861 299.4103 5113923 306.0327 016.6686 05.51799077174154
0 MOLNIYA 1-86
1 22671U 93035A   13286.41808390  .00021799  00000-0  96466-3 0  6798
2 22671 062.7849 298.7539 5113416 306.0706 016.6366 05.51843348174216
0 MOLNIYA 1-86
1 22671U 93035A   13287.68650635  .00021305  00000-0  95124-3 0  6800
2 22671 062.7845 297.9914 5112812 306.1096 016.6381 05.51895298174287
0 MOLNIYA 1-86
1 22671U 93035A   13289.13596655  .00021704  00000-0  98168-3 0  6818
2 22671 062.7853 297.1202 5112069 306.1611 016.6298 05.51959875174363
0 MOLNIYA 1-86
1 22671U 93035A   13290.04178035  .00022273  00000-0  10120-2 0  6822
2 22671 062.7853 296.5750 5111728 306.1914 016.6061 05.52002596174415
0 MOLNIYA 1-86
1 22671U 93035A   13290.94752030  .00023228  00000-0  10578-2 0  6833
2 22671 062.7847 296.0286 5111433 306.2191 016.5972 05.52049366174469
0 MOLNIYA 1-86
1 22671U 93035A   13292.03431372  .00023560  00000-0  10859-2 0  6840
2 22671 062.7854 295.3746 5110789 306.2551 016.5710 05.52102082174525
0 MOLNIYA 1-86
1 22671U 93035A   13293.30211162  .00023943  00000-0  11073-2 0  6859
2 22671 062.7860 294.6104 5110351 306.2946 016.5519 05.52164818174594
0 MOLNIYA 1-86
1 22671U 93035A   13294.38868415  .00024204  00000-0  11282-2 0  6861
2 22671 062.7883 293.9568 5109779 306.3289 016.5406 05.52218776174653
0 MOLNIYA 1-86
1 22671U 93035A   13295.47514648  .00024607  00000-0  11512-2 0  6872
2 22671 062.7878 293.3007 5109310 306.3627 016.5300 05.52274409174711
